      2.10          N: GNSS NAV DATA                        RINEX VERSION / TYPE
fic2rin                                 10/17/2020 00:17:35 PGM / RUN BY / DATE
                                                            END OF HEADER
23 20 10 16 18 14 40.0 8.664885535836e-05 6.252776074689e-12 0.000000000000e+00
    1.950000000000e+02 5.750000000000e+00 5.254861743227e-09-3.710799466607e-01
    2.812594175339e-07 1.076203305274e-03 3.268942236900e-06 5.153610025406e+03
    4.976800000000e+05-1.862645149231e-08 1.581834372860e+00-3.725290298462e-09
    9.613826220851e-01 3.172187500000e+02 1.990560465279e+00-8.613215917873e-09
    9.928985010651e-11 1.000000000000e+00 2.127000000000e+03 0.000000000000e+00
    2.400000000000e+00 0.000000000000e+00-8.381903171539e-09 1.950000000000e+02
    4.905000000000e+05 4.000000000000e+00
 1 20 10 16 17 59 44.0 8.151484653354e-04-2.273736754432e-12 0.000000000000e+00
    1.700000000000e+01 5.334375000000e+01 3.965522322779e-09-5.999722069764e-01
    2.961605787277e-06 1.007704401854e-02 1.165457069874e-05 5.153701562881e+03
    4.967840000000e+05 7.450580596924e-08 5.675111037097e-01 1.210719347000e-07
    9.820026937939e-01 1.699062500000e+02 8.277160210089e-01-7.878185300897e-09
    6.418124483504e-10 1.000000000000e+00 2.127000000000e+03 0.000000000000e+00
    2.400000000000e+00 0.000000000000e+00 5.122274160385e-09 1.700000000000e+01
    4.925400000000e+05 4.000000000000e+00
 1 20 10 16 19 59 44.0 8.151321671903e-04-2.273736754432e-12 0.000000000000e+00
    1.030000000000e+02 4.340625000000e+01 3.947664436069e-09 4.501192585310e-01
    2.259388566017e-06 1.007562223822e-02 1.212023198605e-05 5.153698759079e+03
    5.039840000000e+05-3.539025783539e-08 5.674546058135e-01 1.173466444016e-07
    9.820072785791e-01 1.604062500000e+02 8.277859543448e-01-7.854255732706e-09
    5.946676274365e-10 1.000000000000e+00 2.127000000000e+03 0.000000000000e+00
    2.400000000000e+00 0.000000000000e+00 5.122274160385e-09 1.030000000000e+02
    4.968000000000e+05 4.000000000000e+00
 3 20 10 16 20  0  0.0-3.280420787632e-04-1.023181539495e-11 0.000000000000e+00
    2.600000000000e+01 1.121875000000e+01 5.156643366323e-09-7.313411079555e-01
    7.133930921555e-07 3.268685890362e-03 3.403052687645e-06 5.153716375351e+03
    5.040000000000e+05 2.048909664154e-08 1.607064788470e+00 5.401670932770e-08
    9.665315158715e-01 3.199687500000e+02 8.926891356285e-01-8.559285100009e-09
    1.575065607805e-10 1.000000000000e+00 2.127000000000e+03 0.000000000000e+00
    2.400000000000e+00 0.000000000000e+00 1.862645149231e-09 2.600000000000e+01
    4.968000000000e+05 4.000000000000e+00
 4 20 10 16 20  0  0.0-1.459312625229e-04-3.865352482535e-12 0.000000000000e+00
    5.500000000000e+01-7.134375000000e+01 4.579833625596e-09 2.025844721021e+00
   -3.594905138016e-06 8.475135546178e-04 1.183338463306e-05 5.153627988815e+03
    5.040000000000e+05-5.587935447693e-09 2.686962237002e+00-2.235174179077e-08
    9.604400113016e-01 1.525625000000e+02-2.956062616399e+00-8.079265105250e-09
   -5.946676274365e-10 1.000000000000e+00 2.127000000000e+03 0.000000000000e+00
    2.400000000000e+00 0.000000000000e+00-4.190951585770e-09 5.500000000000e+01
    4.968000000000e+05 4.000000000000e+00
 2 20 10 16 20  0  0.0-5.304389633238e-04-4.888534022029e-12 0.000000000000e+00
    7.100000000000e+01 4.309375000000e+01 4.385539818194e-09 6.601396547235e-01
    2.237036824226e-06 1.991822477430e-02 1.257658004761e-05 5.153802677155e+03
    5.040000000000e+05-3.054738044739e-07 4.882809556389e-01-1.322478055954e-07
    9.609396358615e-01 1.401250000000e+02-1.597902512059e+00-8.324989626377e-09
    4.732339978098e-10 1.000000000000e+00 2.127000000000e+03 0.000000000000e+00
    2.400000000000e+00 0.000000000000e+00-1.769512891769e-08 7.100000000000e+01
    4.968000000000e+05 4.000000000000e+00
10 20 10 16 20  0  0.0-4.813349805772e-04-9.436007530894e-12 0.000000000000e+00
    1.600000000000e+01 9.687500000000e-01 5.069854036913e-09-1.538638528871e+00
   -1.303851604462e-08 6.002637906931e-03 3.222376108170e-06 5.153656270981e+03
    5.040000000000e+05 4.656612873077e-08 1.604082811368e+00-6.891787052155e-08
    9.664526484949e-01 3.177500000000e+02-2.663960152839e+00-8.475710190207e-09
    1.528635102359e-10 1.000000000000e+00 2.127000000000e+03 0.000000000000e+00
    2.400000000000e+00 0.000000000000e+00 2.328306436539e-09 1.600000000000e+01
    4.968000000000e+05 4.000000000000e+00
 5 20 10 16 20  0  0.0-2.356246113777e-05-9.094947017729e-13 0.000000000000e+00
    5.500000000000e+01 8.406250000000e+00 5.382724212069e-09-2.951570660605e+00
    2.644956111908e-07 6.111974595115e-03 2.881512045860e-06 5.153741195679e+03
    5.040000000000e+05 5.215406417847e-08 1.573204883898e+00-1.564621925354e-07
    9.534557156234e-01 3.219062500000e+02 8.865439712235e-01-8.612144444670e-09
    1.128618440060e-10 1.000000000000e+00 2.127000000000e+03 0.000000000000e+00
    2.400000000000e+00 0.000000000000e+00-1.117587089539e-08 5.500000000000e+01
    4.968000000000e+05 4.000000000000e+00
 7 20 10 16 20  0  0.0-3.947890363634e-04-7.958078640513e-12 0.000000000000e+00
    1.000000000000e+02 1.017812500000e+02 4.743411867858e-09-2.307266513311e-01
    5.388632416725e-06 1.420768862590e-02 1.080892980099e-05 5.153642107010e+03
    5.040000000000e+05-9.313225746155e-09-2.572343154086e+00 1.396983861923e-07
    9.528960514425e-01 1.667812500000e+02-2.361608603712e+00-8.431065473433e-09
    2.846547141543e-10 1.000000000000e+00 2.127000000000e+03 0.000000000000e+00
    3.400000000000e+00 0.000000000000e+00-1.117587089539e-08 1.000000000000e+02
    4.968000000000e+05 4.000000000000e+00
 6 20 10 16 20  0  0.0-3.335736691952e-04-2.387423592154e-12 0.000000000000e+00
    6.900000000000e+01 4.681250000000e+01 3.795515241302e-09 8.573801697369e-01
    2.542510628700e-06 1.873126951978e-03 1.174956560135e-05 5.153640451431e+03
    5.040000000000e+05-5.774199962616e-08 5.592067673093e-01-8.568167686462e-08
    9.815362862518e-01 1.615937500000e+02-1.154315637720e+00-7.760323248613e-09
    6.450268679581e-10 1.000000000000e+00 2.127000000000e+03 0.000000000000e+00
    2.400000000000e+00 0.000000000000e+00 4.190951585770e-09 6.900000000000e+01
    4.968000000000e+05 4.000000000000e+00
27 20 10 16 20  0  0.0-4.199366085231e-04-8.640199666843e-12 0.000000000000e+00
    7.000000000000e+00-1.300312500000e+02 3.903019719295e-09 2.630959954020e+00
   -6.701797246933e-06 8.435126859695e-03 1.111999154091e-05 5.153677316666e+03
    5.040000000000e+05-3.911554813385e-08-4.879934132387e-01-1.303851604462e-07
    9.775913740447e-01 1.735312500000e+02 5.727416078440e-01-7.831040479983e-09
   -4.832344143673e-10 1.000000000000e+00 2.127000000000e+03 0.000000000000e+00
    2.400000000000e+00 0.000000000000e+00 1.862645149231e-09 7.000000000000e+00
    4.968000000000e+05 4.000000000000e+00
15 20 10 16 20  0  0.0-1.965034753084e-04 2.614797267597e-12 0.000000000000e+00
    1.200000000000e+01-7.721875000000e+01 5.412368304007e-09 1.722193800742e+00
   -4.049390554428e-06 1.293006713968e-02 1.074559986591e-05 5.153766485214e+03
    5.040000000000e+05-3.315508365631e-07 2.544761356599e+00-9.313225746155e-08
    9.286589615962e-01 1.600000000000e+02 9.329745348200e-01-8.496068181056e-09
   -6.135969873489e-10 1.000000000000e+00 2.127000000000e+03 0.000000000000e+00
    2.400000000000e+00 0.000000000000e+00-1.071020960808e-08 1.200000000000e+01
    4.968000000000e+05 4.000000000000e+00
13 20 10 16 20  0  0.0 5.538947880268e-05 3.751665644813e-12 0.000000000000e+00
    1.100000000000e+01-4.050000000000e+01 4.228390415147e-09 1.970391488749e+00
   -2.125278115273e-06 4.666421096772e-03 1.261755824089e-05 5.153698421478e+03
    5.040000000000e+05-7.264316082001e-08 2.782991003157e+00-6.519258022308e-08
    9.683083235055e-01 1.406562500000e+02 1.046038730386e+00-7.810325331400e-09
   -4.768055751518e-10 1.000000000000e+00 2.127000000000e+03 0.000000000000e+00
    2.400000000000e+00 0.000000000000e+00-1.117587089539e-08 1.100000000000e+01
    4.968000000000e+05 4.000000000000e+00
 9 20 10 16 20  0  0.0-3.010220825672e-04-5.229594535194e-12 0.000000000000e+00
    3.200000000000e+01-7.615625000000e+01 4.783056376354e-09 3.062715599815e+00
   -3.842636942863e-06 1.881215954199e-03 1.099705696106e-05 5.153640117645e+03
    5.040000000000e+05 2.048909664154e-08 2.637936702504e+00-3.725290298462e-08
    9.531689529585e-01 1.638125000000e+02 1.751227655604e+00-8.151768125291e-09
   -5.864529995500e-10 1.000000000000e+00 2.127000000000e+03 0.000000000000e+00
    2.400000000000e+00 0.000000000000e+00 1.396983861923e-09 3.200000000000e+01
    4.968000000000e+05 4.000000000000e+00
 8 20 10 16 20  0  0.0-5.166791379452e-05-1.250555214938e-12 0.000000000000e+00
    4.100000000000e+01-1.340312500000e+02 4.111956993800e-09 2.756455898687e+00
   -6.850808858871e-06 5.580705590546e-03 1.027248799801e-05 5.153741231918e+03
    5.040000000000e+05-1.862645149231e-09-5.034214965203e-01-9.313225746155e-09
    9.690937452043e-01 1.865937500000e+02-6.600387060614e-02-7.963188841636e-09
   -5.193073455211e-10 1.000000000000e+00 2.127000000000e+03 0.000000000000e+00
    2.400000000000e+00 0.000000000000e+00 5.122274160385e-09 4.100000000000e+01
    4.968000000000e+05 4.000000000000e+00
11 20 10 16 20  0  0.0-1.351116225123e-04 1.057287590811e-11 0.000000000000e+00
    5.200000000000e+01-3.803125000000e+01 5.257719005101e-09-9.441169747187e-02
   -2.130866050720e-06 1.576077076606e-02 1.402758061886e-05 5.153728658676e+03
    5.040000000000e+05-1.583248376846e-07 8.395001479794e-02-2.495944499969e-07
    9.139625333852e-01 8.750000000000e+01 2.057686598860e+00-8.601429712644e-09
    1.892935991239e-10 1.000000000000e+00 2.127000000000e+03 0.000000000000e+00
    2.400000000000e+00 0.000000000000e+00-1.210719347000e-08 5.200000000000e+01
    4.968000000000e+05 4.000000000000e+00
